COSMOS 1408 DEB         
1 50032U 82092RU  26065.20233935  .00006441  00000+0  12759-3 0  9998
2 50032  82.5662 332.9003 0013587 270.8036  89.1657 15.46729103238930
COSMOS 1408 DEB         
1 50058U 82092SW  26065.19605859  .00048832  00000+0  38801-3 0  9998
2 50058  82.6135 341.5706 0014855 135.7660 224.4793 15.70889234241119
COSMOS 1408 DEB         
1 50404U 82092ADS 26065.17656584  .00138248  00000+0  33223-2 0  9995
2 50404  82.1955 128.4021 0125516 266.7679  91.9196 15.33000415224630
COSMOS 1408 DEB         
1 50621U 82092ALR 26065.23608793  .00037167  00000+0  41669-3 0  9994
2 50621  82.5722 346.9080 0023174 196.2370 163.8149 15.62149783235511
